[Satellite]
VERSION=1.1
NAME=SURFSAT
NICKNAME=SURFSAT
TLE1=1 23711U 95059B   11059.10770887 -.00000073  00000-0 -62851-4 0  7396
TLE2=2 23711 100.3348  54.2964 0368334 142.4737 220.2740 13.12580783733895
